{"_default": { "31": {"norad_id": "37214", "name": "FENGYUN 3B", "tle1": "1 37214U 10059A   26199.86622796  .00000231  00000-0  14241-3 0  9996", "tle2": "2 37214  98.9598 246.0124 0023167  96.7281  76.4219 14.14847969811909", "object_type": "PAYLOAD", "criticality_score": 9.0, "last_updated": "2026-07-19T02:53:59.007202+00:00", "maneuver_count": 0, "owner": "PRC"}, "32": {"norad_id": "36799", "name": "TISAT 1", "tle1": "1 36799U 10035E   26199.78899867  .00011463  00000-0  36422-3 0  9997", "tle2": "2 36799  98.0714 149.1728 0004702 112.8367 247.3370 15.32815987872549", "object_type": "PAYLOAD", "criticality_score": 9.0, "last_updated": "2026-07-19T02:53:59.007202+00:00", "maneuver_count": 0, "owner": "SWTZ"}, "33": {"norad_id": "33591", "name": "NOAA 19", "tle1": "1 33591U 09005A   26199.83341862  .00000011  00000-0  29922-4 0  9997", "tle2": "2 33591  98.9507 270.7289 0012803 303.2098  56.7846 14.13478606898950", "object_type": "PAYLOAD", "criticality_score": 9.0, "last_updated": "2026-07-19T02:53:59.007202+00:00", "maneuver_count": 0, "owner": "US"}, "61": {"norad_id": "37224", "name": "O/OREOS (USA 219)", "tle1": "1 37224U 10062C   26199.87143271  .00000973  00000-0  97460-4 0  9996", "tle2": "2 37224  71.9700   8.5594 0014218 357.9749   2.1362 14.93859324121371", "object_type": "PAYLOAD", "criticality_score": 9.0, "last_updated": "2026-07-19T02:53:59.007202+00:00", "maneuver_count": 0, "owner": "US"}, "62": {"norad_id": "36795", "name": "CARTOSAT 2B", "tle1": "1 36795U 10035A   26199.87430564 -.00000183  00000-0 -17802-4 0  9999", "tle2": "2 36795  97.9931 250.2182 0012753  89.3486 270.9186 14.78651666864535", "object_type": "PAYLOAD", "criticality_score": 9.0, "last_updated": "2026-07-19T02:53:59.007202+00:00", "maneuver_count": 0, "owner": "IND"}, "63": {"norad_id": "36122", "name": "XIWANG-1 (HOPE-1)", "tle1": "1 36122U 09072B   26199.85951378 -.00000031  00000-0  34999-4 0  9998", "tle2": "2 36122 100.4043 153.1885 0007659 156.7572 203.3888 13.16439137797170", "object_type": "PAYLOAD", "criticality_score": 9.0, "last_updated": "2026-07-19T02:53:59.007202+00:00", "maneuver_count": 0, "owner": "PRC"}, "64": {"norad_id": "35935", "name": "ITUPSAT 1", "tle1": "1 35935U 09051E   26199.68445377  .00000317  00000-0  75415-4 0  9998", "tle2": "2 35935  98.4014 106.8454 0008289 133.4128 226.7763 14.60481463893336", "object_type": "PAYLOAD", "criticality_score": 9.0, "last_updated": "2026-07-19T02:53:59.007202+00:00", "maneuver_count": 0, "owner": "TURK"}, "65": {"norad_id": "35933", "name": "BEESAT", "tle1": "1 35933U 09051C   26199.73440735  .00000344  00000-0  78836-4 0  9995", "tle2": "2 35933  98.3929 107.7381 0006295 120.7003 239.4819 14.61764858893799", "object_type": "PAYLOAD", "criticality_score": 9.0, "last_updated": "2026-07-19T02:53:59.007202+00:00", "maneuver_count": 0, "owner": "GER"}, "66": {"norad_id": "35932", "name": "SWISSCUBE", "tle1": "1 35932U 09051B   26199.70847584  .00000425  00000-0  93582-4 0  9999", "tle2": "2 35932  98.4003 108.1426 0007983 109.6999 250.5063 14.62534308893760", "object_type": "PAYLOAD", "criticality_score": 9.0, "last_updated": "2026-07-19T02:53:59.007202+00:00", "maneuver_count": 0, "owner": "SWTZ"}, "67": {"norad_id": "33499", "name": "KKS-1 (KISEKI)", "tle1": "1 33499U 09002H   26199.82997796  .00000607  00000-0  81199-4 0  9998", "tle2": "2 33499  98.1172 122.7735 0007720 176.9750 183.1511 14.83193995940887", "object_type": "PAYLOAD", "criticality_score": 9.0, "last_updated": "2026-07-19T02:53:59.007202+00:00", "maneuver_count": 0, "owner": "JPN"}, "89": {"norad_id": "37841", "name": "SRMSAT", "tle1": "1 37841U 11058D   26199.48245728  .00000322  00000-0  30967-4 0  9991", "tle2": "2 37841  19.9704 230.0483 0011665 187.3521 320.5069 14.11581472762241", "object_type": "PAYLOAD", "criticality_score": 9.0, "last_updated": "2026-07-19T02:53:59.007202+00:00", "maneuver_count": 0, "owner": "IND"}, "90": {"norad_id": "37839", "name": "JUGNU", "tle1": "1 37839U 11058B   26199.84185546  .00000351  00000-0  43971-4 0  9990", "tle2": "2 37839  19.9600 116.1069 0018634  66.5524 337.1965 14.13784058763518", "object_type": "PAYLOAD", "criticality_score": 9.0, "last_updated": "2026-07-19T02:53:59.007202+00:00", "maneuver_count": 0, "owner": "IND"}, "122": {"norad_id": "35865", "name": "METEOR-M", "tle1": "1 35865U 09049A   26199.85369689  .00000013  00000-0  25502-4 0  9992", "tle2": "2 35865  98.7406 162.1029 0001706 186.9138 173.2017 14.23162912873756", "object_type": "PAYLOAD", "criticality_score": 9.0, "last_updated": "2026-07-19T02:53:59.007202+00:00", "maneuver_count": 0, "owner": "CIS"}, "123": {"norad_id": "33498", "name": "STARS (KUKAI)", "tle1": "1 33498U 09002G   26199.79228174  .00001895  00000-0  17478-3 0  9998", "tle2": "2 33498  98.1556 148.3970 0009878  69.9424 290.2858 14.95939215943201", "object_type": "PAYLOAD", "criticality_score": 9.0, "last_updated": "2026-07-19T02:53:59.007202+00:00", "maneuver_count": 0, "owner": "JPN"}, "259": {"norad_id": "36037", "name": "PROBA 2", "tle1": "1 36037U 09059B   26199.73957447  .00000057  00000-0  23798-4 0  9990", "tle2": "2 36037  98.2462  22.6567 0013259 177.7124 182.4136 14.54874419886115", "object_type": "PAYLOAD", "criticality_score": 9.0, "last_updated": "2026-07-19T02:53:59.007202+00:00", "maneuver_count": 0, "owner": "ESA"}, "287": {"norad_id": "35683", "name": "DMC 2", "tle1": "1 35683U 09041C   26199.81523185  .00000942  00000-0  14369-3 0  9990", "tle2": "2 35683  97.8880 334.0156 0001649  99.8053 260.3343 14.76098678911236", "object_type": "PAYLOAD", "criticality_score": 9.0, "last_updated": "2026-07-19T02:53:59.007202+00:00", "maneuver_count": 0, "owner": "UK"}, "299": {"norad_id": "36797", "name": "AISSAT 1", "tle1": "1 36797U 10035C   26199.81710566  .00001304  00000-0  11735-3 0  9990", "tle2": "2 36797  98.0892 100.1733 0007691 323.0984  36.9707 14.97485545868957", "object_type": "PAYLOAD", "criticality_score": 9.0, "last_updated": "2026-07-19T02:53:59.007202+00:00", "maneuver_count": 0, "owner": "NOR"}, "302": {"norad_id": "37388", "name": "YOUTHSAT", "tle1": "1 37388U 11015B   26199.87345250  .00000074  00000-0  48480-4 0  9997", "tle2": "2 37388  98.3705 172.5026 0013240 247.4678 141.9094 14.25641445792152", "object_type": "PAYLOAD", "criticality_score": 9.0, "last_updated": "2026-07-19T02:53:59.007202+00:00", "maneuver_count": 0, "owner": "IND"}, "343": {"norad_id": "36519", "name": "COSMOS 2463", "tle1": "1 36519U 10017A   26199.87081644  .00000020  00000-0  51076-5 0  9994", "tle2": "2 36519  82.9579 226.4263 0037109  43.9810 128.5931 13.71667318812278", "object_type": "PAYLOAD", "criticality_score": 9.0, "last_updated": "2026-07-19T02:53:59.007202+00:00", "maneuver_count": 0, "owner": "CIS"}, "368": {"norad_id": "37344", "name": "ELEKTRO-L", "tle1": "1 37344U 11001A   26199.58965955  .00000026  00000-0  00000+0 0  9990", "tle2": "2 37344   9.7556  54.1819 0004206  35.1265 295.0294  1.00161600 56790", "object_type": "PAYLOAD", "criticality_score": 9.0, "last_updated": "2026-07-19T02:53:59.007202+00:00", "maneuver_count": 0, "owner": "CIS"}, "375": {"norad_id": "37793", "name": "APRIZESAT 6", "tle1": "1 37793U 11044F   26199.71773412  .00000318  00000-0  52459-4 0  9999", "tle2": "2 37793  98.2332 110.8582 0042763 346.9673  75.3400 14.76959593801807", "object_type": "PAYLOAD", "criticality_score": 9.0, "last_updated": "2026-07-19T02:53:59.007202+00:00", "maneuver_count": 0, "owner": "US"}, "463": {"norad_id": "37387", "name": "RESOURCESAT 2", "tle1": "1 37387U 11015A   26199.83168088  .00000025  00000-0  31720-4 0  9999", "tle2": "2 37387  98.7629 267.0522 0011769 160.9807 199.1811 14.21600063790672", "object_type": "PAYLOAD", "criticality_score": 9.0, "last_updated": "2026-07-19T02:53:59.007202+00:00", "maneuver_count": 0, "owner": "IND"}, "471": {"norad_id": "37849", "name": "NPP", "tle1": "1 37849U 11061A   26199.84774953  .00000029  00000-0  34877-4 0  9998", "tle2": "2 37849  98.7955 140.5087 0000927 196.7742 163.3403 14.19523047762938", "object_type": "PAYLOAD", "criticality_score": 9.0, "last_updated": "2026-07-19T02:53:59.007202+00:00", "maneuver_count": 0, "owner": "US"}, "472": {"norad_id": "35951", "name": "DMSP 5D-3 F18 (USA 210)", "tle1": "1 35951U 09057A   26199.89237831  .00000169  00000-0  11028-3 0  9993", "tle2": "2 35951  98.9059 180.5961 0011450 155.2869 204.8855 14.14913332864070", "object_type": "PAYLOAD", "criticality_score": 9.0, "last_updated": "2026-07-19T02:53:59.007202+00:00", "maneuver_count": 0, "owner": "US"}, "473": {"norad_id": "36834", "name": "YAOGAN 10", "tle1": "1 36834U 10038A   26199.88876336  .00000278  00000-0  38553-4 0  9997", "tle2": "2 36834  97.8966 223.0406 0001588  82.0630  40.8266 14.85433429861913", "object_type": "PAYLOAD", "criticality_score": 9.0, "last_updated": "2026-07-19T02:53:59.007202+00:00", "maneuver_count": 0, "owner": "PRC"}, "475": {"norad_id": "35931", "name": "OCEANSAT 2", "tle1": "1 35931U 09051A   26199.86789912  .00000004  00000-0  28236-4 0  9992", "tle2": "2 35931  98.2323 183.5563 0017574 142.9660 217.2723 13.99655981883765", "object_type": "PAYLOAD", "criticality_score": 9.0, "last_updated": "2026-07-19T02:53:59.007202+00:00", "maneuver_count": 0, "owner": "IND"}, "498": {"norad_id": "36110", "name": "YAOGAN 7", "tle1": "1 36110U 09069A   26199.70409221  .00000173  00000-0  31237-4 0  9998", "tle2": "2 36110  98.0027  85.3706 0023320 299.5121  60.3764 14.78037245894285", "object_type": "PAYLOAD", "criticality_score": 9.0, "last_updated": "2026-07-19T02:53:59.007202+00:00", "maneuver_count": 0, "owner": "PRC"}, "510": {"norad_id": "37216", "name": "SKYMED 4", "tle1": "1 37216U 10060A   26199.83615972 -.00000009  00000-0  54499-5 0  9990", "tle2": "2 37216  97.8895  22.9780 0001511  85.1657 274.9728 14.82150131849258", "object_type": "PAYLOAD", "criticality_score": 9.0, "last_updated": "2026-07-19T02:53:59.007202+00:00", "maneuver_count": 0, "owner": "IT"}, "531": {"norad_id": "37875", "name": "YAOGAN 12", "tle1": "1 37875U 11066B   26199.20066317  .00002770  00000-0  10728-3 0  9993", "tle2": "2 37875  97.1120 236.3139 0011004 113.0088 247.2313 15.26911539816779", "object_type": "PAYLOAD", "criticality_score": 9.0, "last_updated": "2026-07-19T02:53:59.007202+00:00", "maneuver_count": 0, "owner": "PRC"}, "644": {"norad_id": "37180", "name": "SHIJIAN 6 04B (SJ-6 04B)", "tle1": "1 37180U 10051B   26199.85631120 -.00000390  00000-0 -26878-4 0  9998", "tle2": "2 37180  97.8729 205.6062 0008153 200.5384 159.5512 14.99380891860423", "object_type": "PAYLOAD", "criticality_score": 9.0, "last_updated": "2026-07-19T02:53:59.007202+00:00", "maneuver_count": 0, "owner": "PRC"}, "660": {"norad_id": "36358", "name": "RADUGA 1M-2", "tle1": "1 36358U 10002A   26199.61984655 -.00000262  00000-0  00000+0 0  9999", "tle2": "2 36358   3.7011  78.4688 0004765 262.9242 339.2773  0.98970223 50334", "object_type": "PAYLOAD", "criticality_score": 9.0, "last_updated": "2026-07-19T02:53:59.007202+00:00", "maneuver_count": 0, "owner": "CIS"}}}