OBJECT_NAME,OBJECT_ID,EPOCH,MEAN_MOTION,ECCENTRICITY,INCLINATION,RA_OF_ASC_NODE,ARG_OF_PERICENTER,MEAN_ANOMALY,EPHEMERIS_TYPE,CLASSIFICATION_TYPE,NORAD_CAT_ID,ELEMENT_SET_NO,REV_AT_EPOCH,BSTAR,MEAN_MOTION_DOT,MEAN_MOTION_DDOT
STARS (KUKAI),2009-002G,2026-07-18T19:00:53.142336,14.95939215,.0009878,98.1556,148.3970,69.9424,290.2858,0,U,33498,999,94320,.17478E-3,.1895E-4,0
KKS-1 (KISEKI),2009-002H,2026-07-18T19:55:10.095744,14.83193995,.000772,98.1172,122.7735,176.9750,183.1511,0,U,33499,999,94088,.81199E-4,.607E-5,0
NOAA 19,2009-005A,2026-07-18T20:00:07.368768,14.13478606,.0012803,98.9507,270.7289,303.2098,56.7846,0,U,33591,999,89895,.29922E-4,.11E-6,0
UK-DMC 2,2009-041C,2026-07-18T19:33:56.031840,14.76098678,.0001649,97.8880,334.0156,99.8053,260.3343,0,U,35683,999,91123,.14369E-3,.942E-5,0
METEOR-M 1,2009-049A,2026-07-18T20:29:19.411296,14.23162912,.0001706,98.7406,162.1029,186.9138,173.2017,0,U,35865,999,87375,.25502E-4,.13E-6,0
OCEANSAT-2,2009-051A,2026-07-18T20:49:46.483968,13.99655981,.0017574,98.2323,183.5563,142.9660,217.2723,0,U,35931,999,88376,.28236E-4,.4E-7,0
SWISSCUBE,2009-051B,2026-07-18T17:00:12.312576,14.62534308,.0007983,98.4003,108.1426,109.6999,250.5063,0,U,35932,999,89376,.93582E-4,.425E-5,0
BEESAT-1,2009-051C,2026-07-18T17:37:32.795040,14.61764858,.0006295,98.3929,107.7381,120.7003,239.4819,0,U,35933,999,89379,.78836E-4,.344E-5,0
ITUPSAT1,2009-051E,2026-07-18T16:25:36.805728,14.60481463,.0008289,98.4014,106.8454,133.4128,226.7763,0,U,35935,999,89333,.75415E-4,.317E-5,0
DMSP 5D-3 F18 (USA 210),2009-057A,2026-07-18T21:25:01.485984,14.14913332,.001145,98.9059,180.5961,155.2869,204.8855,0,U,35951,999,86407,.11028E-3,.169E-5,0
PROBA-2,2009-059B,2026-07-18T17:44:59.234208,14.54874419,.0013259,98.2462,22.6567,177.7124,182.4136,0,U,36037,999,88611,.23798E-4,.57E-6,0
YAOGAN-7,2009-069A,2026-07-18T16:53:53.566944,14.78037245,.002332,98.0027,85.3706,299.5121,60.3764,0,U,36110,999,89428,.31237E-4,.173E-5,0
XIWANG-1 (HOPE-1),2009-072B,2026-07-18T20:37:41.990592,13.16439137,.0007659,100.4043,153.1885,156.7572,203.3888,0,U,36122,999,79717,.34999E-4,-.31E-6,0
RADUGA-1M 2,2010-002A,2026-07-18T14:52:34.741920,0.98970223,.0004765,3.7011,78.4688,262.9242,339.2773,0,U,36358,999,5033,0,-.262E-5,0
COSMOS 2463,2010-017A,2026-07-18T20:53:58.540416,13.71667318,.0037109,82.9579,226.4263,43.9810,128.5931,0,U,36519,999,81227,.51076E-5,.2E-6,0
CARTOSAT-2B,2010-035A,2026-07-18T20:59:00.007296,14.78651666,.0012753,97.9931,250.2182,89.3486,270.9186,0,U,36795,999,86453,-.17802E-4,-.183E-5,0
AISSAT 1,2010-035C,2026-07-18T19:36:37.929024,14.97485545,.0007691,98.0892,100.1733,323.0984,36.9707,0,U,36797,999,86895,.11735E-3,.1304E-4,0
TISAT 1,2010-035E,2026-07-18T18:56:09.485088,15.32815987,.0004702,98.0714,149.1728,112.8367,247.3370,0,U,36799,999,87254,.36422E-3,.11463E-3,0
YAOGAN-10,2010-038A,2026-07-18T21:19:49.154304,14.85433429,.0001588,97.8966,223.0406,82.0630,40.8266,0,U,36834,999,86191,.38553E-4,.278E-5,0
SHIJIAN-6 04B (SJ-6 04B),2010-051B,2026-07-18T20:33:05.287680,14.99380891,.0008153,97.8729,205.6062,200.5384,159.5512,0,U,37180,999,86042,-.26878E-4,-.39E-5,0
FENGYUN 3B,2010-059A,2026-07-18T20:47:22.095744,14.14847969,.0023167,98.9598,246.0124,96.7281,76.4219,0,U,37214,999,81190,.14241E-3,.231E-5,0
COSMO-SKYMED 4,2010-060A,2026-07-18T20:04:04.199808,14.82150131,.0001511,97.8895,22.9780,85.1657,274.9728,0,U,37216,999,84925,.54499E-5,-.9E-7,0
O/OREOS (USA 219),2010-062C,2026-07-18T20:54:51.786144,14.93859324,.0014218,71.9700,8.5594,357.9749,2.1362,0,U,37224,999,12137,.9746E-4,.973E-5,0
ELEKTRO-L 1 (GOMS 2),2011-001A,2026-07-18T14:09:06.585120,1.00161600,.0004206,9.7556,54.1819,35.1265,295.0294,0,U,37344,999,5679,0,.26E-6,0
RESOURCESAT-2,2011-015A,2026-07-18T19:57:37.228032,14.21600063,.0011769,98.7629,267.0522,160.9807,199.1811,0,U,37387,999,79067,.3172E-4,.25E-6,0
YOUTHSAT,2011-015B,2026-07-18T20:57:46.296000,14.25641445,.001324,98.3705,172.5026,247.4678,141.9094,0,U,37388,999,79215,.4848E-4,.74E-6,0
APRIZESAT 6,2011-044F,2026-07-18T17:13:32.227968,14.76959593,.0042763,98.2332,110.8582,346.9673,75.3400,0,U,37793,999,80180,.52459E-4,.318E-5,0
JUGNU,2011-058B,2026-07-18T20:12:16.311744,14.13784058,.0018634,19.9600,116.1069,66.5524,337.1965,0,U,37839,999,76351,.43971E-4,.351E-5,0
SRMSAT,2011-058D,2026-07-18T11:34:44.308992,14.11581472,.00116646,19.9704,230.0483,187.3521,320.5069,0,U,37841,999,76224,.30967464E-4,.322E-5,0
SUOMI NPP,2011-061A,2026-07-18T20:20:45.559392,14.19523047,.0000927,98.7955,140.5087,196.7742,163.3403,0,U,37849,999,76293,.34877E-4,.29E-6,0
YAOGAN-12,2011-066B,2026-07-18T04:48:57.297888,15.26911539,.00110036,97.1120,236.3139,113.0088,247.2313,0,U,37875,999,81677,.10727749E-3,.277E-4,0
